[{"OBJECT_NAME":"RUNNER-1 (TYVAK-1005)","OBJECT_ID":"2023-084X","EPOCH":"2026-03-09T23:04:09.569568","MEAN_MOTION":15.35579757,"ECCENTRICITY":0.0007303,"INCLINATION":97.6067,"RA_OF_ASC_NODE":207.5453,"ARG_OF_PERICENTER":311.3836,"MEAN_ANOMALY":48.6778,"EPHEMERIS_TYPE":0,"CLASSIFICATION_TYPE":"U","NORAD_CAT_ID":56953,"ELEMENT_SET_NO":999,"REV_AT_EPOCH":15236,"BSTAR":0.00038328234,"MEAN_MOTION_DOT":0.0001319,"MEAN_MOTION_DDOT":0},{"OBJECT_NAME":"FLOCK 4G-35","OBJECT_ID":"2025-009CC","EPOCH":"2026-03-09T18:16:29.173728","MEAN_MOTION":15.33603414,"ECCENTRICITY":0.00032423,"INCLINATION":97.4012,"RA_OF_ASC_NODE":151.7924,"ARG_OF_PERICENTER":307.1268,"MEAN_ANOMALY":52.9678,"EPHEMERIS_TYPE":0,"CLASSIFICATION_TYPE":"U","NORAD_CAT_ID":62683,"ELEMENT_SET_NO":999,"REV_AT_EPOCH":12140,"BSTAR":0.00099271567,"MEAN_MOTION_DOT":0.00032274,"MEAN_MOTION_DDOT":0}]
